{"type": "FeatureCollection", "features": [ {"type": "Feature", "properties": {"norad_id": 34546, "name": "COSMOS 2251 DEB", "group": "cosmos-2251-debris", "lat": 73.99883907991472, "lon": -18.631425344598473, "alt_km": 743.0600571116602, "timestamp": "2025-12-13T05:42:57.966707+00:00", "meta": {"OBJECT_NAME": "COSMOS 2251 DEB", "OBJECT_ID": "1993-036UG", "EPOCH": "2025-12-11T22:18:41.199264", "MEAN_MOTION": 14.45406778, "ECCENTRICITY": 0.0021921, "INCLINATION": 74.0311, "RA_OF_ASC_NODE": 250.6964, "ARG_OF_PERICENTER": 324.5056, "MEAN_ANOMALY": 160.0175, "EPHEMERIS_TYPE": 0, "CLASSIFICATION_TYPE": "U", "NORAD_CAT_ID": 34546, "ELEMENT_SET_NO": 999, "REV_AT_EPOCH": 88014, "BSTAR": 0.0010497, "MEAN_MOTION_DOT": 3.679e-05, "MEAN_MOTION_DDOT": 0}, "tle": {"line1": "1 34546U 93036UG  25345.92964351  .00003679  00000+0  10497-2 0  9998", "line2": "2 34546  74.0311 250.6964 0021921 324.5056 160.0175 14.45406778880149"}}, "geometry": {"type": "Point", "coordinates": [-18.631425344598473, 73.99883907991472]}}, {"type": "Feature", "properties": {"norad_id": 34547, "name": "COSMOS 2251 DEB", "group": "cosmos-2251-debris", "lat": -31.059031853694368, "lon": 89.8238541144729, "alt_km": 669.8091412817948, "timestamp": "2025-12-13T05:42:57.966718+00:00", "meta": {"OBJECT_NAME": "COSMOS 2251 DEB", "OBJECT_ID": "1993-036UH", "EPOCH": "2025-12-11T14:43:32.841120", "MEAN_MOTION": 14.72298648, "ECCENTRICITY": 0.00175909, "INCLINATION": 74.0303, "RA_OF_ASC_NODE": 102.9163, "ARG_OF_PERICENTER": 182.0571, "MEAN_ANOMALY": 178.0532, "EPHEMERIS_TYPE": 0, "CLASSIFICATION_TYPE": "U", "NORAD_CAT_ID": 34547, "ELEMENT_SET_NO": 999, "REV_AT_EPOCH": 88505, "BSTAR": 0.003400892, "MEAN_MOTION_DOT": 0.00021587, "MEAN_MOTION_DDOT": 0}, "tle": {"line1": "1 34547U 93036UH  25345.61357455  .00021587  00000+0  34009-2 0  9999", "line2": "2 34547  74.0303 102.9163 0017590 182.0571 178.0532 14.72298648885053"}}, "geometry": {"type": "Point", "coordinates": [89.8238541144729, -31.059031853694368]}}, {"type": "Feature", "properties": {"norad_id": 34553, "name": "COSMOS 2251 DEB", "group": "cosmos-2251-debris", "lat": -16.97387466640765, "lon": 15.96035318064285, "alt_km": 700.4539531654918, "timestamp": "2025-12-13T05:42:57.966729+00:00", "meta": {"OBJECT_NAME": "COSMOS 2251 DEB", "OBJECT_ID": "1993-036UP", "EPOCH": "2025-12-11T17:06:02.921184", "MEAN_MOTION": 14.57707101, "ECCENTRICITY": 0.00193719, "INCLINATION": 74.0247, "RA_OF_ASC_NODE": 193.8454, "ARG_OF_PERICENTER": 271.2686, "MEAN_ANOMALY": 203.5704, "EPHEMERIS_TYPE": 0, "CLASSIFICATION_TYPE": "U", "NORAD_CAT_ID": 34553, "ELEMENT_SET_NO": 999, "REV_AT_EPOCH": 88081, "BSTAR": 0.0015912729, "MEAN_MOTION_DOT": 7.262e-05, "MEAN_MOTION_DDOT": 0}, "tle": {"line1": "1 34553U 93036UP  25345.71253381  .00007262  00000+0  15913-2 0  9997", "line2": "2 34553  74.0247 193.8454 0019371 271.2686 203.5704 14.57707101880812"}}, "geometry": {"type": "Point", "coordinates": [15.96035318064285, -16.97387466640765]}}, {"type": "Feature", "properties": {"norad_id": 34554, "name": "COSMOS 2251 DEB", "group": "cosmos-2251-debris", "lat": -73.90571658343181, "lon": -159.2048334134019, "alt_km": 772.8983550039147, "timestamp": "2025-12-13T05:42:57.966740+00:00", "meta": {"OBJECT_NAME": "COSMOS 2251 DEB", "OBJECT_ID": "1993-036UQ", "EPOCH": "2025-12-11T20:53:13.392960", "MEAN_MOTION": 14.37935968, "ECCENTRICITY": 0.002295, "INCLINATION": 74.0386, "RA_OF_ASC_NODE": 300.592, "ARG_OF_PERICENTER": 3.1494, "MEAN_ANOMALY": 27.0274, "EPHEMERIS_TYPE": 0, "CLASSIFICATION_TYPE": "U", "NORAD_CAT_ID": 34554, "ELEMENT_SET_NO": 999, "REV_AT_EPOCH": 87743, "BSTAR": 0.00056325, "MEAN_MOTION_DOT": 1.681e-05, "MEAN_MOTION_DDOT": 0}, "tle": {"line1": "1 34554U 93036UQ  25345.87029390  .00001681  00000+0  56325-3 0  9998", "line2": "2 34554  74.0386 300.5920 0022950   3.1494  27.0274 14.37935968877435"}}, "geometry": {"type": "Point", "coordinates": [-159.2048334134019, -73.90571658343181]}}, {"type": "Feature", "properties": {"norad_id": 34556, "name": "COSMOS 2251 DEB", "group": "cosmos-2251-debris", "lat": 39.837191043321, "lon": -69.95802345979646, "alt_km": 628.903379185369, "timestamp": "2025-12-13T05:42:57.966750+00:00", "meta": {"OBJECT_NAME": "COSMOS 2251 DEB", "OBJECT_ID": "1993-036US", "EPOCH": "2025-12-11T15:46:46.515648", "MEAN_MOTION": 14.77747642, "ECCENTRICITY": 0.00078788, "INCLINATION": 74.0159, "RA_OF_ASC_NODE": 126.9824, "ARG_OF_PERICENTER": 187.1045, "MEAN_ANOMALY": 185.2844, "EPHEMERIS_TYPE": 0, "CLASSIFICATION_TYPE": "U", "NORAD_CAT_ID": 34556, "ELEMENT_SET_NO": 999, "REV_AT_EPOCH": 88313, "BSTAR": 0.0034463135, "MEAN_MOTION_DOT": 0.00024795, "MEAN_MOTION_DDOT": 0}, "tle": {"line1": "1 34556U 93036US  25345.65748282  .00024795  00000+0  34463-2 0  9993", "line2": "2 34556  74.0159 126.9824 0007878 187.1045 185.2844 14.77747642883133"}}, "geometry": {"type": "Point", "coordinates": [-69.95802345979646, 39.837191043321]}}, {"type": "Feature", "properties": {"norad_id": 34560, "name": "COSMOS 2251 DEB", "group": "cosmos-2251-debris", "lat": 20.589521257283774, "lon": 147.34397741069694, "alt_km": 663.4709786701205, "timestamp": "2025-12-13T05:42:57.966761+00:00", "meta": {"OBJECT_NAME": "COSMOS 2251 DEB", "OBJECT_ID": "1993-036UW", "EPOCH": "2025-12-11T19:56:42.891936", "MEAN_MOTION": 14.72099094, "ECCENTRICITY": 0.00146847, "INCLINATION": 74.0167, "RA_OF_ASC_NODE": 143.9021, "ARG_OF_PERICENTER": 225.3472, "MEAN_ANOMALY": 261.9903, "EPHEMERIS_TYPE": 0, "CLASSIFICATION_TYPE": "U", "NORAD_CAT_ID": 34560, "ELEMENT_SET_NO": 999, "REV_AT_EPOCH": 88238, "BSTAR": 0.0034589559, "MEAN_MOTION_DOT": 0.0002184, "MEAN_MOTION_DDOT": 0}, "tle": {"line1": "1 34560U 93036UW  25345.83105199  .00021840  00000+0  34590-2 0  9991", "line2": "2 34560  74.0167 143.9021 0014684 225.3472 261.9903 14.72099094882387"}}, "geometry": {"type": "Point", "coordinates": [147.34397741069694, 20.589521257283774]}}, {"type": "Feature", "properties": {"norad_id": 34563, "name": "COSMOS 2251 DEB", "group": "cosmos-2251-debris", "lat": 70.86904032602285, "lon": -32.82155365261175, "alt_km": 739.3753962008986, "timestamp": "2025-12-13T05:42:57.966771+00:00", "meta": {"OBJECT_NAME": "COSMOS 2251 DEB", "OBJECT_ID": "1993-036UZ", "EPOCH": "2025-12-12T01:44:17.026656", "MEAN_MOTION": 14.46506918, "ECCENTRICITY": 0.0013895, "INCLINATION": 74.0377, "RA_OF_ASC_NODE": 204.954, "ARG_OF_PERICENTER": 298.8498, "MEAN_ANOMALY": 213.6471, "EPHEMERIS_TYPE": 0, "CLASSIFICATION_TYPE": "U", "NORAD_CAT_ID": 34563, "ELEMENT_SET_NO": 999, "REV_AT_EPOCH": 88187, "BSTAR": 0.00069451254, "MEAN_MOTION_DOT": 2.477e-05, "MEAN_MOTION_DDOT": 0}, "tle": {"line1": "1 34563U 93036UZ  25346.07241929  .00002477  00000+0  69451-3 0  9993", "line2": "2 34563  74.0377 204.9540 0013895 298.8498 213.6471 14.46506918881879"}}, "geometry": {"type": "Point", "coordinates": [-32.82155365261175, 70.86904032602285]}}, {"type": "Feature", "properties": {"norad_id": 34564, "name": "COSMOS 2251 DEB", "group": "cosmos-2251-debris", "lat": -46.43736049324306, "lon": 74.61113320158358, "alt_km": 767.6929525050855, "timestamp": "2025-12-13T05:42:57.966782+00:00", "meta": {"OBJECT_NAME": "COSMOS 2251 DEB", "OBJECT_ID": "1993-036VA", "EPOCH": "2025-12-12T04:22:21.006912", "MEAN_MOTION": 14.40688498, "ECCENTRICITY": 0.00190064, "INCLINATION": 74.0325, "RA_OF_ASC_NODE": 239.0431, "ARG_OF_PERICENTER": 343.0333, "MEAN_ANOMALY": 171.374, "EPHEMERIS_TYPE": 0, "CLASSIFICATION_TYPE": "U", "NORAD_CAT_ID": 34564, "ELEMENT_SET_NO": 999, "REV_AT_EPOCH": 87998, "BSTAR": 0.00038442813, "MEAN_MOTION_DOT": 1.204e-05, "MEAN_MOTION_DDOT": 0}, "tle": {"line1": "1 34564U 93036VA  25346.18218758  .00001204  00000+0  38443-3 0  9994", "line2": "2 34564  74.0325 239.0431 0019006 343.0333 171.3740 14.40688498879988"}}, "geometry": {"type": "Point", "coordinates": [74.61113320158358, -46.43736049324306]}}, {"type": "Feature", "properties": {"norad_id": 34567, "name": "COSMOS 2251 DEB", "group": "cosmos-2251-debris", "lat": -60.97857334233031, "lon": 6.935760184307987, "alt_km": 766.9343769267953, "timestamp": "2025-12-13T05:42:57.966792+00:00", "meta": {"OBJECT_NAME": "COSMOS 2251 DEB", "OBJECT_ID": "1993-036VD", "EPOCH": "2025-12-11T22:48:25.333344", "MEAN_MOTION": 14.24015105, "ECCENTRICITY": 0.0074476, "INCLINATION": 74.0399, "RA_OF_ASC_NODE": 158.2009, "ARG_OF_PERICENTER": 232.644, "MEAN_ANOMALY": 252.8964, "EPHEMERIS_TYPE": 0, "CLASSIFICATION_TYPE": "U", "NORAD_CAT_ID": 34567, "ELEMENT_SET_NO": 999, "REV_AT_EPOCH": 87113, "BSTAR": 0.00033899, "MEAN_MOTION_DOT": 7.75e-06, "MEAN_MOTION_DDOT": 0}, "tle": {"line1": "1 34567U 93036VD  25345.95029321  .00000775  00000+0  33899-3 0  9999", "line2": "2 34567  74.0399 158.2009 0074476 232.6440 252.8964 14.24015105871132"}}, "geometry": {"type": "Point", "coordinates": [6.935760184307987, -60.97857334233031]}}, {"type": "Feature", "properties": {"norad_id": 34569, "name": "COSMOS 2251 DEB", "group": "cosmos-2251-debris", "lat": 50.59993691784393, "lon": -142.30518611653517, "alt_km": 704.1653554584291, "timestamp": "2025-12-13T05:42:57.966803+00:00", "meta": {"OBJECT_NAME": "COSMOS 2251 DEB", "OBJECT_ID": "1993-036VF", "EPOCH": "2025-12-11T14:51:14.626656", "MEAN_MOTION": 14.24748288, "ECCENTRICITY": 0.01572567, "INCLINATION": 73.9903, "RA_OF_ASC_NODE": 200.1629, "ARG_OF_PERICENTER": 28.8066, "MEAN_ANOMALY": 1.9109, "EPHEMERIS_TYPE": 0, "CLASSIFICATION_TYPE": "U", "NORAD_CAT_ID": 34569, "ELEMENT_SET_NO": 999, "REV_AT_EPOCH": 86952, "BSTAR": 0.00071468017, "MEAN_MOTION_DOT": 1.868e-05, "MEAN_MOTION_DDOT": 0}, "tle": {"line1": "1 34569U 93036VF  25345.61891929  .00001868  00000+0  71468-3 0  9993", "line2": "2 34569  73.9903 200.1629 0157256  28.8066   1.9109 14.24748288869524"}}, "geometry": {"type": "Point", "coordinates": [-142.30518611653517, 50.59993691784393]}}]}